[{
  "_id": {
    "$oid": "64a45be19e4a7f743c1451d2"
  },
  "address": {
    "building": "1007",
    "coord": [
      -73.856077,
      40.848447
    ],
    "street": "Morris Park Ave",
    "zipcode": "10462"
  },
  "borough": "Bronx",
  "cuisine": "Bakery",
  "name": "Morris Park Bake Shop",
  "restaurant_id": "30075445"
},
{
  "_id": {
    "$oid": "64a45be19e4a7f743c1451d3"
  },
  "address": {
    "building": "469",
    "coord": [
      -73.961704,
      40.662942
    ],
    "street": "Flatbush Avenue",
    "zipcode": "11225"
  },
  "borough": "Brooklyn",
  "cuisine": "Hamburgers",
  "name": "Wendy'S",
  "restaurant_id": "30112340"
},
{
  "_id": {
    "$oid": "64a45be19e4a7f743c1451d4"
  },
  "address": {
    "building": "351",
    "coord": [
      -73.98513559999999,
      40.7676919
    ],
    "street": "West   57 Street",
    "zipcode": "10019"
  },
  "borough": "Manhattan",
  "cuisine": "Irish",
  "name": "Dj Reynolds Pub And Restaurant",
  "restaurant_id": "30191841"
},
{
  "_id": {
    "$oid": "64a45be19e4a7f743c1451d5"
  },
  "address": {
    "building": "2780",
    "coord": [
      -73.98241999999999,
      40.579505
    ],
    "street": "Stillwell Avenue",
    "zipcode": "11224"
  },
  "borough": "Brooklyn",
  "cuisine": "American ",
  "name": "Riviera Caterer",
  "restaurant_id": "40356018"
},
{
  "_id": {
    "$oid": "64a45be19e4a7f743c1451d6"
  },
  "address": {
    "building": "97-22",
    "coord": [
      -73.8601152,
      40.7311739
    ],
    "street": "63 Road",
    "zipcode": "11374"
  },
  "borough": "Queens",
  "cuisine": "Jewish/Kosher",
  "name": "Tov Kosher Kitchen",
  "restaurant_id": "40356068"
},
{
  "_id": {
    "$oid": "64a45be19e4a7f743c1451d7"
  },
  "address": {
    "building": "8825",
    "coord": [
      -73.8803827,
      40.7643124
    ],
    "street": "Astoria Boulevard",
    "zipcode": "11369"
  },
  "borough": "Queens",
  "cuisine": "American ",
  "name": "Brunos On The Boulevard",
  "restaurant_id": "40356151"
},
{
  "_id": {
    "$oid": "64a45be19e4a7f743c1451d8"
  },
  "address": {
    "building": "2206",
    "coord": [
      -74.1377286,
      40.6119572
    ],
    "street": "Victory Boulevard",
    "zipcode": "10314"
  },
  "borough": "Staten Island",
  "cuisine": "Jewish/Kosher",
  "name": "Kosher Island",
  "restaurant_id": "40356442"
},
{
  "_id": {
    "$oid": "64a45be19e4a7f743c1451d9"
  },
  "address": {
    "building": "7114",
    "coord": [
      -73.9068506,
      40.6199034
    ],
    "street": "Avenue U",
    "zipcode": "11234"
  },
  "borough": "Brooklyn",
  "cuisine": "Delicatessen",
  "name": "Wilken'S Fine Food",
  "restaurant_id": "40356483"
},
{
  "_id": {
    "$oid": "64a45be19e4a7f743c1451da"
  },
  "address": {
    "building": "6409",
    "coord": [
      -74.00528899999999,
      40.628886
    ],
    "street": "11 Avenue",
    "zipcode": "11219"
  },
  "borough": "Brooklyn",
  "cuisine": "American ",
  "name": "Regina Caterers",
  "restaurant_id": "40356649"
},
{
  "_id": {
    "$oid": "64a45be19e4a7f743c1451db"
  },
  "address": {
    "building": "1839",
    "coord": [
      -73.9482609,
      40.6408271
    ],
    "street": "Nostrand Avenue",
    "zipcode": "11226"
  },
  "borough": "Brooklyn",
  "cuisine": "Ice Cream, Gelato, Yogurt, Ices",
  "name": "Taste The Tropics Ice Cream",
  "restaurant_id": "40356731"
},
{
  "_id": {
    "$oid": "64a45be19e4a7f743c1451dc"
  },
  "address": {
    "building": "2300",
    "coord": [
      -73.8786113,
      40.8502883
    ],
    "street": "Southern Boulevard",
    "zipcode": "10460"
  },
  "borough": "Bronx",
  "cuisine": "American ",
  "name": "Wild Asia",
  "restaurant_id": "40357217"
},
{
  "_id": {
    "$oid": "64a45be19e4a7f743c1451dd"
  },
  "address": {
    "building": "7715",
    "coord": [
      -73.9973325,
      40.61174889999999
    ],
    "street": "18 Avenue",
    "zipcode": "11214"
  },
  "borough": "Brooklyn",
  "cuisine": "American ",
  "name": "C & C Catering Service",
  "restaurant_id": "40357437"
},
{
  "_id": {
    "$oid": "64a45be19e4a7f743c1451de"
  },
  "address": {
    "building": "1269",
    "coord": [
      -73.871194,
      40.6730975
    ],
    "street": "Sutter Avenue",
    "zipcode": "11208"
  },
  "borough": "Brooklyn",
  "cuisine": "Chinese",
  "name": "May May Kitchen",
  "restaurant_id": "40358429"
},
{
  "_id": {
    "$oid": "64a45be19e4a7f743c1451df"
  },
  "address": {
    "building": "1",
    "coord": [
      -73.96926909999999,
      40.7685235
    ],
    "street": "East   66 Street",
    "zipcode": "10065"
  },
  "borough": "Manhattan",
  "cuisine": "American ",
  "name": "1 East 66Th Street Kitchen",
  "restaurant_id": "40359480"
},
{
  "_id": {
    "$oid": "64a45be19e4a7f743c1451e0"
  },
  "address": {
    "building": "705",
    "coord": [
      -73.9653967,
      40.6064339
    ],
    "street": "Kings Highway",
    "zipcode": "11223"
  },
  "borough": "Brooklyn",
  "cuisine": "Jewish/Kosher",
  "name": "Seuda Foods",
  "restaurant_id": "40360045"
},
{
  "_id": {
    "$oid": "64a45be19e4a7f743c1451e1"
  },
  "address": {
    "building": "203",
    "coord": [
      -73.97822040000001,
      40.6435254
    ],
    "street": "Church Avenue",
    "zipcode": "11218"
  },
  "borough": "Brooklyn",
  "cuisine": "Ice Cream, Gelato, Yogurt, Ices",
  "name": "Carvel Ice Cream",
  "restaurant_id": "40360076"
},
{
  "_id": {
    "$oid": "64a45be19e4a7f743c1451e3"
  },
  "address": {
    "building": "6909",
    "coord": [
      -74.0259567,
      40.6353674
    ],
    "street": "3 Avenue",
    "zipcode": "11209"
  },
  "borough": "Brooklyn",
  "cuisine": "Delicatessen",
  "name": "Nordic Delicacies",
  "restaurant_id": "40361390"
},
{
  "_id": {
    "$oid": "64a45be19e4a7f743c1451e4"
  },
  "address": {
    "building": "522",
    "coord": [
      -73.95171,
      40.767461
    ],
    "street": "East   74 Street",
    "zipcode": "10021"
  },
  "borough": "Manhattan",
  "cuisine": "American ",
  "name": "Glorious Food",
  "restaurant_id": "40361521"
},
{
  "_id": {
    "$oid": "64a45be19e4a7f743c1451e5"
  },
  "address": {
    "building": "284",
    "coord": [
      -73.9829239,
      40.6580753
    ],
    "street": "Prospect Park West",
    "zipcode": "11215"
  },
  "borough": "Brooklyn",
  "cuisine": "American ",
  "name": "The Movable Feast",
  "restaurant_id": "40361606"
},
{
  "_id": {
    "$oid": "64a45be19e4a7f743c1451e6"
  },
  "address": {
    "building": "129-08",
    "coord": [
      -73.839297,
      40.78147
    ],
    "street": "20 Avenue",
    "zipcode": "11356"
  },
  "borough": "Queens",
  "cuisine": "Delicatessen",
  "name": "Sal'S Deli",
  "restaurant_id": "40361618"
},
{
  "_id": {
    "$oid": "64a45be19e4a7f743c1451e7"
  },
  "address": {
    "building": "759",
    "coord": [
      -73.9925306,
      40.7309346
    ],
    "street": "Broadway",
    "zipcode": "10003"
  },
  "borough": "Manhattan",
  "cuisine": "Delicatessen",
  "name": "Bully'S Deli",
  "restaurant_id": "40361708"
},
{
  "_id": {
    "$oid": "64a45be19e4a7f743c1451e8"
  },
  "address": {
    "building": "3406",
    "coord": [
      -73.94024739999999,
      40.7623288
    ],
    "street": "10 Street",
    "zipcode": "11106"
  },
  "borough": "Queens",
  "cuisine": "Delicatessen",
  "name": "Steve Chu'S Deli & Grocery",
  "restaurant_id": "40361998"
},
{
  "_id": {
    "$oid": "64a45be19e4a7f743c1451e9"
  },
  "address": {
    "building": "502",
    "coord": [
      -73.976112,
      40.786714
    ],
    "street": "Amsterdam Avenue",
    "zipcode": "10024"
  },
  "borough": "Manhattan",
  "cuisine": "Chicken",
  "name": "Harriet'S Kitchen",
  "restaurant_id": "40362098"
},
{
  "_id": {
    "$oid": "64a45be19e4a7f743c1451ea"
  },
  "address": {
    "building": "730",
    "coord": [
      -73.96805719999999,
      40.7925587
    ],
    "street": "Columbus Avenue",
    "zipcode": "10025"
  },
  "borough": "Manhattan",
  "cuisine": "American ",
  "name": "P & S Deli Grocery",
  "restaurant_id": "40362264"
},
{
  "_id": {
    "$oid": "64a45be19e4a7f743c1451eb"
  },
  "address": {
    "building": "18",
    "coord": [
      -73.996984,
      40.72589
    ],
    "street": "West Houston Street",
    "zipcode": "10012"
  },
  "borough": "Manhattan",
  "cuisine": "American ",
  "name": "Angelika Film Center",
  "restaurant_id": "40362274"
},
{
  "_id": {
    "$oid": "64a45be19e4a7f743c1451ec"
  },
  "address": {
    "building": "531",
    "coord": [
      -73.9634876,
      40.6940001
    ],
    "street": "Myrtle Avenue",
    "zipcode": "11205"
  },
  "borough": "Brooklyn",
  "cuisine": "Hamburgers",
  "name": "White Castle",
  "restaurant_id": "40362344"
},
{
  "_id": {
    "$oid": "64a45be19e4a7f743c1451ed"
  },
  "address": {
    "building": "103-05",
    "coord": [
      -73.8642349,
      40.75356
    ],
    "street": "37 Avenue",
    "zipcode": "11368"
  },
  "borough": "Queens",
  "cuisine": "Chinese",
  "name": "Ho Mei Restaurant",
  "restaurant_id": "40362432"
},
{
  "_id": {
    "$oid": "64a45be19e4a7f743c1451ee"
  },
  "address": {
    "building": "60",
    "coord": [
      -74.0085357,
      40.70620539999999
    ],
    "street": "Wall Street",
    "zipcode": "10005"
  },
  "borough": "Manhattan",
  "cuisine": "Turkish",
  "name": "The Country Cafe",
  "restaurant_id": "40362715"
},
{
  "_id": {
    "$oid": "64a45be19e4a7f743c1451ef"
  },
  "address": {
    "building": "195",
    "coord": [
      -73.9246028,
      40.6522396
    ],
    "street": "East   56 Street",
    "zipcode": "11203"
  },
  "borough": "Brooklyn",
  "cuisine": "Caribbean",
  "name": "Shashemene Int'L Restaura",
  "restaurant_id": "40362869"
},
{
  "_id": {
    "$oid": "64a45be19e4a7f743c1451f0"
  },
  "address": {
    "building": "107",
    "coord": [
      -74.00920839999999,
      40.7132925
    ],
    "street": "Church Street",
    "zipcode": "10007"
  },
  "borough": "Manhattan",
  "cuisine": "American ",
  "name": "Downtown Deli",
  "restaurant_id": "40363021"
},
{
  "_id": {
    "$oid": "64a45be19e4a7f743c1451f2"
  },
  "address": {
    "building": "56",
    "coord": [
      -73.991495,
      40.692273
    ],
    "street": "Court Street",
    "zipcode": "11201"
  },
  "borough": "Brooklyn",
  "cuisine": "Donuts",
  "name": "Dunkin' Donuts",
  "restaurant_id": "40363098"
},
{
  "_id": {
    "$oid": "64a45be19e4a7f743c1451f3"
  },
  "address": {
    "building": "7615",
    "coord": [
      -74.0228449,
      40.6281815
    ],
    "street": "5 Avenue",
    "zipcode": "11209"
  },
  "borough": "Brooklyn",
  "cuisine": "American ",
  "name": "Mejlander & Mulgannon",
  "restaurant_id": "40363117"
},
{
  "_id": {
    "$oid": "64a45be19e4a7f743c1451f4"
  },
  "address": {
    "building": "120",
    "coord": [
      -73.9998042,
      40.7251256
    ],
    "street": "Prince Street",
    "zipcode": "10012"
  },
  "borough": "Manhattan",
  "cuisine": "Bakery",
  "name": "Olive'S",
  "restaurant_id": "40363151"
},
{
  "_id": {
    "$oid": "64a45be19e4a7f743c1451f5"
  },
  "address": {
    "building": "1236",
    "coord": [
      -73.8893654,
      40.81376179999999
    ],
    "street": "238 Spofford Ave",
    "zipcode": "10474"
  },
  "borough": "Bronx",
  "cuisine": "Chinese",
  "name": "Happy Garden",
  "restaurant_id": "40363289"
},
{
  "_id": {
    "$oid": "64a45be19e4a7f743c1451f6"
  },
  "address": {
    "building": "625",
    "coord": [
      -73.990494,
      40.7569545
    ],
    "street": "8 Avenue",
    "zipcode": "10018"
  },
  "borough": "Manhattan",
  "cuisine": "American ",
  "name": "Cafe Metro",
  "restaurant_id": "40363298"
},
{
  "_id": {
    "$oid": "64a45be19e4a7f743c1451f7"
  },
  "address": {
    "building": "1069",
    "coord": [
      -73.902463,
      40.694924
    ],
    "street": "Wyckoff Avenue",
    "zipcode": "11385"
  },
  "borough": "Queens",
  "cuisine": "Delicatessen",
  "name": "Tony'S Deli",
  "restaurant_id": "40363333"
},
{
  "_id": {
    "$oid": "64a45be19e4a7f743c1451f8"
  },
  "address": {
    "building": "405",
    "coord": [
      -73.97534999999999,
      40.7516269
    ],
    "street": "Lexington Avenue",
    "zipcode": "10174"
  },
  "borough": "Manhattan",
  "cuisine": "Sandwiches/Salads/Mixed Buffet",
  "name": "Lexler Deli",
  "restaurant_id": "40363426"
},
{
  "_id": {
    "$oid": "64a45be19e4a7f743c1451f9"
  },
  "address": {
    "building": "2491",
    "coord": [
      -74.1459332,
      40.6103714
    ],
    "street": "Victory Boulevard",
    "zipcode": "10314"
  },
  "borough": "Staten Island",
  "cuisine": "Delicatessen",
  "name": "Bagels N Buns",
  "restaurant_id": "40363427"
},
{
  "_id": {
    "$oid": "64a45be19e4a7f743c1451fa"
  },
  "address": {
    "building": "7905",
    "coord": [
      -73.8740217,
      40.7135015
    ],
    "street": "Metropolitan Avenue",
    "zipcode": "11379"
  },
  "borough": "Queens",
  "cuisine": "Bagels/Pretzels",
  "name": "Hot Bagels",
  "restaurant_id": "40363565"
},
{
  "_id": {
    "$oid": "64a45be19e4a7f743c1451fb"
  },
  "address": {
    "building": "87-69",
    "coord": [
      -73.8309503,
      40.7001121
    ],
    "street": "Lefferts Boulevard",
    "zipcode": "11418"
  },
  "borough": "Queens",
  "cuisine": "American ",
  "name": "Snack Time Grill",
  "restaurant_id": "40363590"
},
{
  "_id": {
    "$oid": "64a45be19e4a7f743c1451fc"
  },
  "address": {
    "building": "1418",
    "coord": [
      -73.95685019999999,
      40.7753401
    ],
    "street": "Third Avenue",
    "zipcode": "10028"
  },
  "borough": "Manhattan",
  "cuisine": "Continental",
  "name": "Lorenzo & Maria'S",
  "restaurant_id": "40363630"
},
{
  "_id": {
    "$oid": "64a45be19e4a7f743c1451fd"
  },
  "address": {
    "building": "464",
    "coord": [
      -73.9791458,
      40.744328
    ],
    "street": "3 Avenue",
    "zipcode": "10016"
  },
  "borough": "Manhattan",
  "cuisine": "Pizza",
  "name": "Domino'S Pizza",
  "restaurant_id": "40363644"
},
{
  "_id": {
    "$oid": "64a45be19e4a7f743c1451fe"
  },
  "address": {
    "building": "437",
    "coord": [
      -73.975393,
      40.757365
    ],
    "street": "Madison Avenue",
    "zipcode": "10022"
  },
  "borough": "Manhattan",
  "cuisine": "American ",
  "name": "Berkely",
  "restaurant_id": "40363685"
},
{
  "_id": {
    "$oid": "64a45be19e4a7f743c1451ff"
  },
  "address": {
    "building": "1031",
    "coord": [
      -73.9075537,
      40.6438684
    ],
    "street": "East   92 Street",
    "zipcode": "11236"
  },
  "borough": "Brooklyn",
  "cuisine": "American ",
  "name": "Sonny'S Heros",
  "restaurant_id": "40363744"
},
{
  "_id": {
    "$oid": "64a45be19e4a7f743c145201"
  },
  "address": {
    "building": "976",
    "coord": [
      -73.92701509999999,
      40.6620192
    ],
    "street": "Rutland Road",
    "zipcode": "11212"
  },
  "borough": "Brooklyn",
  "cuisine": "Chinese",
  "name": "Golden Pavillion",
  "restaurant_id": "40363920"
},
{
  "_id": {
    "$oid": "64a45be19e4a7f743c145202"
  },
  "address": {
    "building": "148",
    "coord": [
      -73.9806854,
      40.7778589
    ],
    "street": "West   72 Street",
    "zipcode": "10023"
  },
  "borough": "Manhattan",
  "cuisine": "Pizza",
  "name": "Domino'S Pizza",
  "restaurant_id": "40363945"
},
{
  "_id": {
    "$oid": "64a45be19e4a7f743c145203"
  },
  "address": {
    "building": "364",
    "coord": [
      -73.96084119999999,
      40.8014307
    ],
    "street": "West  110 Street",
    "zipcode": "10025"
  },
  "borough": "Manhattan",
  "cuisine": "American ",
  "name": "Spoon Bread Catering",
  "restaurant_id": "40364179"
}]